{
  "type": "FeatureCollection",
  "features": [
    {
      "type": "Feature",
      "properties": {
        "norad_id": 31025,
        "name": "FENGYUN 1C DEB",
        "group": "fengyun-1c-debris",
        "lat": 9.716112600454025,
        "lon": 170.600747867714,
        "alt_km": 945.9994816340704,
        "timestamp": "2025-12-25T07:00:34.327033+00:00",
        "meta_object_name": "FENGYUN 1C DEB",
        "meta_object_id": "1999-025BDT",
        "meta_epoch": "2025-12-07T05:28:07.771008",
        "meta_mean_motion": 14.20521805,
        "meta_eccentricity": 0.01734931,
        "meta_inclination": 98.58,
        "meta_ra_of_asc_node": 331.5793,
        "meta_arg_of_pericenter": 28.741,
        "meta_mean_anomaly": 332.3194,
        "meta_ephemeris_type": 0,
        "meta_classification_type": "U",
        "meta_norad_cat_id": 31025,
        "meta_element_set_no": 999,
        "meta_rev_at_epoch": 64287,
        "meta_bstar": 0.0012507545,
        "meta_mean_motion_dot": 3.084e-05,
        "meta_mean_motion_ddot": 0,
        "tle_line1": "1 31025U 99025BDT 25341.22786772  .00003084  00000+0  12508-2 0  9994",
        "tle_line2": "2 31025  98.5800 331.5793 0173493  28.7410 332.3194 14.20521805642873"
      },
      "geometry": {
        "type": "Point",
        "coordinates": [
          170.600747867714,
          9.716112600454025
        ]
      }
    },
    {
      "type": "Feature",
      "properties": {
        "norad_id": 31026,
        "name": "FENGYUN 1C DEB",
        "group": "fengyun-1c-debris",
        "lat": -61.21879453746865,
        "lon": -49.63856952638572,
        "alt_km": 1043.1346214967061,
        "timestamp": "2025-12-25T07:00:34.327044+00:00",
        "meta_object_name": "FENGYUN 1C DEB",
        "meta_object_id": "1999-025BDU",
        "meta_epoch": "2025-12-16T14:07:08.116896",
        "meta_mean_motion": 13.83400412,
        "meta_eccentricity": 0.01344959,
        "meta_inclination": 98.7801,
        "meta_ra_of_asc_node": 285.8947,
        "meta_arg_of_pericenter": 172.0946,
        "meta_mean_anomaly": 1.2766,
        "meta_ephemeris_type": 0,
        "meta_classification_type": "U",
        "meta_norad_cat_id": 31026,
        "meta_element_set_no": 999,
        "meta_rev_at_epoch": 68079,
        "meta_bstar": 0.00014906948,
        "meta_mean_motion_dot": 1.36e-06,
        "meta_mean_motion_ddot": 0,
        "tle_line1": "1 31026U 99025BDU 25350.58828839  .00000136  00000+0  14907-3 0  9996",
        "tle_line2": "2 31026  98.7801 285.8947 0134495 172.0946   1.2766 13.83400412680793"
      },
      "geometry": {
        "type": "Point",
        "coordinates": [
          -49.63856952638572,
          -61.21879453746865
        ]
      }
    },
    {
      "type": "Feature",
      "properties": {
        "norad_id": 31028,
        "name": "FENGYUN 1C DEB",
        "group": "fengyun-1c-debris",
        "lat": -19.550214166170807,
        "lon": 107.20791384713287,
        "alt_km": 875.860439573551,
        "timestamp": "2025-12-25T07:00:34.327054+00:00",
        "meta_object_name": "FENGYUN 1C DEB",
        "meta_object_id": "1999-025BDW",
        "meta_epoch": "2025-12-16T00:45:35.214048",
        "meta_mean_motion": 13.89074855,
        "meta_eccentricity": 0.01643907,
        "meta_inclination": 98.7052,
        "meta_ra_of_asc_node": 281.6698,
        "meta_arg_of_pericenter": 285.3135,
        "meta_mean_anomaly": 72.9908,
        "meta_ephemeris_type": 0,
        "meta_classification_type": "U",
        "meta_norad_cat_id": 31028,
        "meta_element_set_no": 999,
        "meta_rev_at_epoch": 62049,
        "meta_bstar": 0.0002880402,
        "meta_mean_motion_dot": 3.48e-06,
        "meta_mean_motion_ddot": 0,
        "tle_line1": "1 31028U 99025BDW 25350.03165757  .00000348  00000+0  28804-3 0  9997",
        "tle_line2": "2 31028  98.7052 281.6698 0164390 285.3135  72.9908 13.89074855620493"
      },
      "geometry": {
        "type": "Point",
        "coordinates": [
          107.20791384713287,
          -19.550214166170807
        ]
      }
    },
    {
      "type": "Feature",
      "properties": {
        "norad_id": 31029,
        "name": "FENGYUN 1C DEB",
        "group": "fengyun-1c-debris",
        "lat": 3.923716534244281,
        "lon": -104.10899604720906,
        "alt_km": 725.641267631956,
        "timestamp": "2025-12-25T07:00:34.327066+00:00",
        "meta_object_name": "FENGYUN 1C DEB",
        "meta_object_id": "1999-025BDX",
        "meta_epoch": "2025-12-24T16:12:29.903904",
        "meta_mean_motion": 14.34345661,
        "meta_eccentricity": 0.00899574,
        "meta_inclination": 98.8586,
        "meta_ra_of_asc_node": 255.872,
        "meta_arg_of_pericenter": 39.1712,
        "meta_mean_anomaly": 22.7779,
        "meta_ephemeris_type": 0,
        "meta_classification_type": "U",
        "meta_norad_cat_id": 31029,
        "meta_element_set_no": 999,
        "meta_rev_at_epoch": 97967,
        "meta_bstar": 0.00034634204,
        "meta_mean_motion_dot": 9.72e-06,
        "meta_mean_motion_ddot": 0,
        "tle_line1": "1 31029U 99025BDX 25358.67534611  .00000972  00000+0  34634-3 0  9996",
        "tle_line2": "2 31029  98.8586 255.8720 0089957  39.1712  22.7779 14.34345661979670"
      },
      "geometry": {
        "type": "Point",
        "coordinates": [
          -104.10899604720906,
          3.923716534244281
        ]
      }
    },
    {
      "type": "Feature",
      "properties": {
        "norad_id": 31030,
        "name": "FENGYUN 1C DEB",
        "group": "fengyun-1c-debris",
        "lat": 64.4486886103051,
        "lon": 42.342493052832666,
        "alt_km": 787.8569315246887,
        "timestamp": "2025-12-25T07:00:34.327081+00:00",
        "meta_object_name": "FENGYUN 1C DEB",
        "meta_object_id": "1999-025BDY",
        "meta_epoch": "2025-12-24T16:13:48.917568",
        "meta_mean_motion": 14.23717678,
        "meta_eccentricity": 0.00271625,
        "meta_inclination": 98.7657,
        "meta_ra_of_asc_node": 60.5576,
        "meta_arg_of_pericenter": 50.0908,
        "meta_mean_anomaly": 101.3153,
        "meta_ephemeris_type": 0,
        "meta_classification_type": "U",
        "meta_norad_cat_id": 31030,
        "meta_element_set_no": 999,
        "meta_rev_at_epoch": 96874,
        "meta_bstar": 0.00081730669,
        "meta_mean_motion_dot": 1.829e-05,
        "meta_mean_motion_ddot": 0,
        "tle_line1": "1 31030U 99025BDY 25358.67626062  .00001829  00000+0  81731-3 0  9992",
        "tle_line2": "2 31030  98.7657  60.5576 0027162  50.0908 101.3153 14.23717678968744"
      },
      "geometry": {
        "type": "Point",
        "coordinates": [
          42.342493052832666,
          64.4486886103051
        ]
      }
    },
    {
      "type": "Feature",
      "properties": {
        "norad_id": 31031,
        "name": "FENGYUN 1C DEB",
        "group": "fengyun-1c-debris",
        "lat": -52.0503542753074,
        "lon": -71.44851780421301,
        "alt_km": 847.5598990770641,
        "timestamp": "2025-12-25T07:00:34.327092+00:00",
        "meta_object_name": "FENGYUN 1C DEB",
        "meta_object_id": "1999-025BDZ",
        "meta_epoch": "2025-12-24T00:55:32.714976",
        "meta_mean_motion": 14.2100357,
        "meta_eccentricity": 0.00282093,
        "meta_inclination": 99.0724,
        "meta_ra_of_asc_node": 275.4423,
        "meta_arg_of_pericenter": 153.5984,
        "meta_mean_anomaly": 224.558,
        "meta_ephemeris_type": 0,
        "meta_classification_type": "U",
        "meta_norad_cat_id": 31031,
        "meta_element_set_no": 999,
        "meta_rev_at_epoch": 97015,
        "meta_bstar": 0.00038521203,
        "meta_mean_motion_dot": 7.92e-06,
        "meta_mean_motion_ddot": 0,
        "tle_line1": "1 31031U 99025BDZ 25358.03857309  .00000792  00000+0  38521-3 0  9990",
        "tle_line2": "2 31031  99.0724 275.4423 0028209 153.5984 224.5580 14.21003570970155"
      },
      "geometry": {
        "type": "Point",
        "coordinates": [
          -71.44851780421301,
          -52.0503542753074
        ]
      }
    },
    {
      "type": "Feature",
      "properties": {
        "norad_id": 31032,
        "name": "FENGYUN 1C DEB",
        "group": "fengyun-1c-debris",
        "lat": -20.455793577626398,
        "lon": -175.03445381392697,
        "alt_km": 811.7274351066953,
        "timestamp": "2025-12-25T07:00:34.327102+00:00",
        "meta_object_name": "FENGYUN 1C DEB",
        "meta_object_id": "1999-025BEA",
        "meta_epoch": "2025-12-24T06:42:48.767904",
        "meta_mean_motion": 14.02245985,
        "meta_eccentricity": 0.01392196,
        "meta_inclination": 99.3994,
        "meta_ra_of_asc_node": 7.4641,
        "meta_arg_of_pericenter": 164.6264,
        "meta_mean_anomaly": 327.4375,
        "meta_ephemeris_type": 0,
        "meta_classification_type": "U",
        "meta_norad_cat_id": 31032,
        "meta_element_set_no": 999,
        "meta_rev_at_epoch": 95143,
        "meta_bstar": 0.0014529196,
        "meta_mean_motion_dot": 2.377e-05,
        "meta_mean_motion_ddot": 0,
        "tle_line1": "1 31032U 99025BEA 25358.27973111  .00002377  00000+0  14529-2 0  9999",
        "tle_line2": "2 31032  99.3994   7.4641 0139219 164.6264 327.4375 14.02245985951433"
      },
      "geometry": {
        "type": "Point",
        "coordinates": [
          -175.03445381392697,
          -20.455793577626398
        ]
      }
    }
  ]
}